2024-156G               
1 60951U 24156G   24248.58923361  .00077855  00000+0  13108-2 0  9992
2 60951  35.0043 329.8532 0089712  11.2485 348.5288 15.46012649   239
1998-067WS              
1 60952U 98067WS  24247.60271997  .00140970  00000+0  23388-2 0  9998
2 60952  51.6401 286.8289 0012954 319.4077  40.6076 15.51042010   817
1998-067WT              
1 60953U 98067WT  24247.66711382  .00102989  00000+0  17281-2 0  9995
2 60953  51.6414 286.5082 0013904 318.0790  41.9263 15.50877393   825
1998-067WU              
1 60954U 98067WU  24247.60248306  .00115501  00000+0  19272-2 0  9997
2 60954  51.6391 286.8206 0013428 314.7580  45.2651 15.50985581   818
1998-067WV              
1 60955U 98067WV  24247.60125530  .00203667  00000+0  32610-2 0  9993
2 60955  51.6416 286.8212 0013836 321.7337  38.2664 15.51776702   815
1998-067WW              
1 60956U 98067WW  24247.60242771  .00154113  00000+0  25374-2 0  9991
2 60956  51.6399 286.8228 0013445 320.6243  39.3988 15.51195344   800
1998-067WX              
1 60957U 98067WX  24247.66684267  .00151188  00000+0  24897-2 0  9996
2 60957  51.6404 286.5066 0012900 319.6447  40.3692 15.51209936  2803
1998-067WY              
1 60958U 98067WY  24247.66719863  .00094452  00000+0  15904-2 0  9997
2 60958  51.6408 286.5055 0014036 317.7376  42.2529 15.50818434   815
